     3.02           N: GNSS NAV DATA    C: BDS              RINEX VERSION / TYPE
Alloy 6.23          SMO                 20250420 010254 UTC PGM / RUN BY / DATE
                                                            END OF HEADER
C16 2025 04 19 23 00 00 -.329724163748D-03 -.341815464822D-10  .000000000000D+00
      .100000000000D+01 -.733750000000D+02  .136398538689D-08 -.166682280348D+01
     -.265985727310D-05  .869529263582D-02  .117211602628D-04  .649333033562D+04
      .601200000000D+06  .123400241137D-06 -.605263954713D+00  .186264514923D-07
      .962762620505D+00 -.116406250000D+03 -.217568747878D+01 -.170614249625D-08
      .257153568621D-09  .000000000000D+00  .100600000000D+04  .000000000000D+00
      .200000000000D+01  .000000000000D+00  .113000000468D-07  .187000000000D-07
      .601200000000D+06  .000000000000D+00
C16 2025 04 20 00 00 00 -.329846516252D-03 -.340971695323D-10  .000000000000D+00
      .100000000000D+01 -.668281250000D+02  .141363031195D-08 -.140439748375D+01
     -.249594449997D-05  .869505235460D-02  .119120813906D-04  .649332808876D+04
      .000000000000D+00  .731088221073D-07 -.725684180756D+00  .103376805782D-06
      .962763161784D+00 -.124078125000D+03 -.217558426991D+01 -.175221584397D-08
      .243938732456D-09  .000000000000D+00  .100700000000D+04  .000000000000D+00
      .200000000000D+01  .000000000000D+00  .113000000468D-07  .187000000000D-07
      .000000000000D+00  .000000000000D+00
C24 2025 04 19 23 00 00  .557475141250D-03 -.186632931332D-10  .000000000000D+00
      .100000000000D+01  .268750000000D+01  .414695845175D-08  .472607981334D+00
      .174622982740D-06  .601382111199D-03  .742869451642D-05  .528263453865D+04
      .601200000000D+06 -.889413058758D-07 -.826344301243D-01  .149011611938D-07
      .944625757146D+00  .204000000000D+03  .792610387564D+00 -.675242412271D-08
     -.807176479283D-10  .000000000000D+00  .100600000000D+04  .000000000000D+00
      .200000000000D+01  .000000000000D+00  .419999990342D-08  .420000000000D-08
      .601200000000D+06  .100000000000D+01
C24 2025 04 20 00 00 00  .557408086024D-03 -.186455295648D-10  .000000000000D+00
      .100000000000D+01  .371875000000D+01  .418874590665D-08  .960770731729D+00
      .195577740669D-06  .601114239544D-03  .735372304916D-05  .528263367081D+04
      .000000000000D+00 -.405125319958D-07 -.203072674929D+00 -.768341124058D-07
      .944625413360D+00  .207218750000D+03  .792012927432D+00 -.676742474755D-08
     -.155363614375D-09  .000000000000D+00  .100700000000D+04  .000000000000D+00
      .200000000000D+01  .000000000000D+00  .419999990342D-08  .420000000000D-08
      .000000000000D+00  .100000000000D+01
C25 2025 04 20 00 00 00  .707406317815D-03  .110986775326D-10  .000000000000D+00
      .100000000000D+01  .537500000000D+01  .415910181471D-08  .191939820070D+00
      .247731804848D-06  .524847069755D-03  .746175646782D-05  .528265510368D+04
      .000000000000D+00 -.325962901115D-07 -.226208779944D+00  .670552253723D-07
      .946187912273D+00  .203343750000D+03  .751359058675D+00 -.676813906302D-08
     -.628597612185D-10  .000000000000D+00  .100700000000D+04  .000000000000D+00
      .200000000000D+01  .000000000000D+00  .800000010681D-09  .800000000000D-09
      .000000000000D+00  .100000000000D+01
C26 2025 04 19 23 00 00 -.450098072179D-03 -.555111512313D-11  .000000000000D+00
      .100000000000D+01  .460937500000D+01  .419767485001D-08  .127287356612D+01
      .218860805035D-06  .879380619153D-03  .734254717827D-05  .528264905548D+04
      .601200000000D+06  .209547579288D-07 -.105149463509D+00 -.745058059692D-07
      .946236798606D+00  .208531250000D+03  .750003305197D+00 -.678921136933D-08
     -.146434671020D-09  .000000000000D+00  .100600000000D+04  .000000000000D+00
      .200000000000D+01  .000000000000D+00 -.499999996961D-08 -.500000000000D-08
      .601200000000D+06  .100000000000D+01
C26 2025 04 20 00 00 00 -.450117629953D-03 -.551114709424D-11  .000000000000D+00
      .100000000000D+01  .431250000000D+01  .424874840600D-08  .176037361170D+01
      .117346644402D-06  .879362225533D-03  .730948522687D-05  .528264917183D+04
      .000000000000D+00  .484287738800D-07 -.225588014063D+00 -.186264514923D-08
      .946236042278D+00  .208734375000D+03  .750064804810D+00 -.684421366040D-08
     -.180364655769D-09  .000000000000D+00  .100700000000D+04  .000000000000D+00
      .200000000000D+01  .000000000000D+00 -.499999996961D-08 -.500000000000D-08
      .000000000000D+00  .100000000000D+01
C33 2025 04 19 23 00 00 -.969220185652D-03  .380051545790D-11  .000000000000D+00
      .100000000000D+01 -.108421875000D+03  .336335438292D-08  .268487119310D+01
     -.535091385245D-05  .594548881054D-03  .628083944321D-05  .528263799858D+04
      .601200000000D+06 -.931322574615D-08 -.217776447428D+01  .144354999065D-07
      .981696725941D+00  .244875000000D+03 -.177814554576D+00 -.658455998764D-08
      .642883921553D-10  .000000000000D+00  .100600000000D+04  .000000000000D+00
      .200000000000D+01  .000000000000D+00 -.444000001210D-07 -.444000000000D-07
      .601200000000D+06  .100000000000D+01
C33 2025 04 20 00 00 00 -.969206215814D-03  .382804898891D-11  .000000000000D+00
      .100000000000D+01 -.108671875000D+03  .338371237377D-08 -.311092672782D+01
     -.536395236850D-05  .595015124418D-03  .644102692604D-05  .528263708496D+04
      .000000000000D+00 -.162981450558D-07 -.229820254207D+01  .158324837685D-07
      .981696930749D+00  .241156250000D+03 -.177640322495D+00 -.658991735365D-08
      .639312344211D-10  .000000000000D+00  .100700000000D+04  .000000000000D+00
      .200000000000D+01  .000000000000D+00 -.444000001210D-07 -.444000000000D-07
      .000000000000D+00  .100000000000D+01
C34 2025 04 19 23 00 00  .674429233186D-03  .811350986396D-11  .000000000000D+00
      .100000000000D+01  .112312500000D+03  .397838000121D-08 -.182136395965D+01
      .550178810954D-05  .672237132676D-03  .533321872354D-05  .528262207413D+04
      .601200000000D+06 -.372529029846D-08  .197872288474D+01 -.605359673500D-08
      .950282495629D+00  .243609375000D+03  .939666378545D+00 -.698421949220D-08
      .571452374714D-10  .000000000000D+00  .100600000000D+04  .000000000000D+00
      .200000000000D+01  .000000000000D+00 -.590000004408D-08 -.590000000000D-08
      .601950000000D+06  .100000000000D+01
C34 2025 04 20 00 00 00  .674458220601D-03  .808508815453D-11  .000000000000D+00
      .100000000000D+01  .106953125000D+03  .390266256156D-08 -.133223743736D+01
      .535976141691D-05  .672530382872D-03  .514835119247D-05  .528262417793D+04
      .000000000000D+00  .931322574615D-09  .185828333794D+01 -.195577740669D-07
      .950282756028D+00  .249734375000D+03  .938108291793D+00 -.697243328698D-08
      .614311302817D-10  .000000000000D+00  .100700000000D+04  .000000000000D+00
      .200000000000D+01  .000000000000D+00 -.590000004408D-08 -.590000000000D-08
      .000000000000D+00  .100000000000D+01
C35 2025 04 19 23 00 00  .642577651888D-04 -.114726006473D-10  .000000000000D+00
      .100000000000D+01  .948437500000D+02  .402873924173D-08 -.729233560876D-01
      .464916229248D-05  .927261775360D-03  .492716208100D-05  .528262152672D+04
      .601200000000D+06  .270083546638D-07  .197869248970D+01  .172294676304D-07
      .950357180523D+00  .260687500000D+03  .703727309136D+00 -.697243328698D-08
      .382158775590D-10  .000000000000D+00  .100600000000D+04  .000000000000D+00
      .200000000000D+01  .000000000000D+00 -.229999996826D-08 -.230000000000D-08
      .601200000000D+06  .100000000000D+01
C35 2025 04 20 00 00 00  .642163213342D-04 -.115001341783D-10  .000000000000D+00
      .100000000000D+01  .877968750000D+02  .401588156330D-08  .415040143402D+00
      .417744740844D-05  .926214735955D-03  .463612377644D-05  .528261935234D+04
      .000000000000D+00  .745058059692D-08  .185825310089D+01  .153668224812D-07
      .950357339981D+00  .264578125000D+03  .703332575802D+00 -.696457581682D-08
      .253581991279D-10  .000000000000D+00  .100700000000D+04  .000000000000D+00
      .200000000000D+01  .000000000000D+00 -.229999996826D-08 -.230000000000D-08
      .000000000000D+00  .100000000000D+01
C39 2025 04 19 23 00 00 -.112273264676D-04 -.124344978758D-12  .000000000000D+00
      .100000000000D+01 -.921093750000D+02  .135541360127D-08 -.100292265347D+01
     -.328244641423D-05  .351272185799D-02  .121002085507D-04  .649301743698D+04
      .601200000000D+06  .763684511185D-07 -.677667734964D+00  .665895640850D-07
      .963398855281D+00 -.127875000000D+03 -.267546837346D+01 -.173364364179D-08
      .306798493674D-09  .000000000000D+00  .100600000000D+04  .000000000000D+00
      .200000000000D+01  .000000000000D+00  .660000010200D-08  .660000000000D-08
      .601200000000D+06  .100000000000D+01
C39 2025 04 20 00 00 00 -.112279085442D-04 -.129674049276D-12  .000000000000D+00
      .100000000000D+01 -.880937500000D+02  .140720147273D-08 -.740543074797D+00
     -.319397076964D-05  .351182802115D-02  .123465433717D-04  .649301475143D+04
      .000000000000D+00  .167638063431D-07 -.798088221406D+00  .977888703346D-07
      .963399670126D+00 -.139234375000D+03 -.267528144618D+01 -.176650215333D-08
      .302512600864D-09  .000000000000D+00  .100700000000D+04  .000000000000D+00
      .200000000000D+01  .000000000000D+00  .660000010200D-08  .660000000000D-08
      .000000000000D+00  .100000000000D+01
